[
    {
        "Altitude(m)": 706733.8717823264,
        "Argument of Periapsis(deg)": 0.009112096949301655,
        "Eccentricity": 0.0,
        "Inclination(deg)": 45.0,
        "Latitude(deg)": 42.5780341145724,
        "Longitude(deg)": -81.66384981216866,
        "Mean Anomaly(deg)": -252.59162668201537,
        "RAAN(deg)": 264.9913984468334,
        "Satellite Name": "Constellation 1 1172",
        "Satellite Number": 1172,
        "Semi-Major Axis(m)": 7083131.272910544,
        "Time(s)": 152
    },
    {
        "Altitude(m)": 706730.0063905611,
        "Argument of Periapsis(deg)": 0.009172044955547059,
        "Eccentricity": 0.0,
        "Inclination(deg)": 45.0,
        "Latitude(deg)": 42.5605399324506,
        "Longitude(deg)": -81.58917295378846,
        "Mean Anomaly(deg)": -252.5309255417655,
        "RAAN(deg)": 264.99134185766786,
        "Satellite Name": "Constellation 1 1172",
        "Satellite Number": 1172,
        "Semi-Major Axis(m)": 7083131.272910544,
        "Time(s)": 153
    },
    {
        "Altitude(m)": 706726.1297845294,
        "Argument of Periapsis(deg)": 0.009231992961792466,
        "Eccentricity": 0.0,
        "Inclination(deg)": 45.0,
        "Latitude(deg)": 42.542991578097634,
        "Longitude(deg)": -81.51454013858448,
        "Mean Anomaly(deg)": -252.47022440151557,
        "RAAN(deg)": 264.9912852685023,
        "Satellite Name": "Constellation 1 1172",
        "Satellite Number": 1172,
        "Semi-Major Axis(m)": 7083131.272910544,
        "Time(s)": 154
    },
    {
        "Altitude(m)": 706722.241987308,
        "Argument of Periapsis(deg)": 0.009291940968037872,
        "Eccentricity": 0.0,
        "Inclination(deg)": 45.0,
        "Latitude(deg)": 42.525389114456665,
        "Longitude(deg)": -81.43995145068855,
        "Mean Anomaly(deg)": -252.40952326126566,
        "RAAN(deg)": 264.99122867933676,
        "Satellite Name": "Constellation 1 1172",
        "Satellite Number": 1172,
        "Semi-Major Axis(m)": 7083131.272910544,
        "Time(s)": 155
    },
    {
        "Altitude(m)": 706718.3430220538,
        "Argument of Periapsis(deg)": 0.009351888974283276,
        "Eccentricity": 0.0,
        "Inclination(deg)": 45.0,
        "Latitude(deg)": 42.50773260457404,
        "Longitude(deg)": -81.36540714176607,
        "Mean Anomaly(deg)": -252.34882212101576,
        "RAAN(deg)": 264.9911720901712,
        "Satellite Name": "Constellation 1 1172",
        "Satellite Number": 1172,
        "Semi-Major Axis(m)": 7083131.272910544,
        "Time(s)": 156
    },
    {
        "Altitude(m)": 706714.4329119934,
        "Argument of Periapsis(deg)": 0.00941183698052868,
        "Eccentricity": 0.0,
        "Inclination(deg)": 45.0,
        "Latitude(deg)": 42.49002211159847,
        "Longitude(deg)": -81.29090695862892,
        "Mean Anomaly(deg)": -252.28812098076583,
        "RAAN(deg)": 264.9911155010056,
        "Satellite Name": "Constellation 1 1172",
        "Satellite Number": 1172,
        "Semi-Major Axis(m)": 7083131.272910544,
        "Time(s)": 157
    },
    {
        "Altitude(m)": 706710.511680416,
        "Argument of Periapsis(deg)": 0.009471784986774088,
        "Eccentricity": 0.0,
        "Inclination(deg)": 45.0,
        "Latitude(deg)": 42.47225769878024,
        "Longitude(deg)": -81.21645115181687,
        "Mean Anomaly(deg)": -252.22741984051595,
        "RAAN(deg)": 264.99105891184,
        "Satellite Name": "Constellation 1 1172",
        "Satellite Number": 1172,
        "Semi-Major Axis(m)": 7083131.272910544,
        "Time(s)": 158
    },
    {
        "Altitude(m)": 706706.5793506842,
        "Argument of Periapsis(deg)": 0.009531732993019492,
        "Eccentricity": 0.0,
        "Inclination(deg)": 45.0,
        "Latitude(deg)": 42.45443942947014,
        "Longitude(deg)": -81.1420398032102,
        "Mean Anomaly(deg)": -252.16671870026605,
        "RAAN(deg)": 264.99100232267443,
        "Satellite Name": "Constellation 1 1172",
        "Satellite Number": 1172,
        "Semi-Major Axis(m)": 7083131.272910544,
        "Time(s)": 159
    },
    {
        "Altitude(m)": 706702.6359462292,
        "Argument of Periapsis(deg)": 0.009591680999264898,
        "Eccentricity": 0.0,
        "Inclination(deg)": 45.0,
        "Latitude(deg)": 42.43656736711867,
        "Longitude(deg)": -81.06767299412692,
        "Mean Anomaly(deg)": -252.1060175600162,
        "RAAN(deg)": 264.9909457335089,
        "Satellite Name": "Constellation 1 1172",
        "Satellite Number": 1172,
        "Semi-Major Axis(m)": 7083131.272910544,
        "Time(s)": 160
    },
    {
        "Altitude(m)": 706698.6814905482,
        "Argument of Periapsis(deg)": 0.009651629005510304,
        "Eccentricity": 0.0,
        "Inclination(deg)": 45.0,
        "Latitude(deg)": 42.41864157527513,
        "Longitude(deg)": -80.99335080532346,
        "Mean Anomaly(deg)": -252.04531641976627,
        "RAAN(deg)": 264.9908891443433,
        "Satellite Name": "Constellation 1 1172",
        "Satellite Number": 1172,
        "Semi-Major Axis(m)": 7083131.272910544,
        "Time(s)": 161
    },
    {
        "Altitude(m)": 706694.7160072116,
        "Argument of Periapsis(deg)": 0.00971157701175571,
        "Eccentricity": 0.0,
        "Inclination(deg)": 45.0,
        "Latitude(deg)": 42.40066211758679,
        "Longitude(deg)": -80.91907331699446,
        "Mean Anomaly(deg)": -251.98461527951636,
        "RAAN(deg)": 264.99083255517775,
        "Satellite Name": "Constellation 1 1172",
        "Satellite Number": 1172,
        "Semi-Major Axis(m)": 7083131.272910544,
        "Time(s)": 162
    },
    {
        "Altitude(m)": 706690.7395198536,
        "Argument of Periapsis(deg)": 0.009771525018001118,
        "Eccentricity": 0.0,
        "Inclination(deg)": 45.0,
        "Latitude(deg)": 42.382629057797935,
        "Longitude(deg)": -80.8448407768705,
        "Mean Anomaly(deg)": -251.9239141392665,
        "RAAN(deg)": 264.99077596601217,
        "Satellite Name": "Constellation 1 1172",
        "Satellite Number": 1172,
        "Semi-Major Axis(m)": 7083131.272910544,
        "Time(s)": 163
    },
    {
        "Altitude(m)": 706686.7520521831,
        "Argument of Periapsis(deg)": 0.00983147302424652,
        "Eccentricity": 0.0,
        "Inclination(deg)": 45.0,
        "Latitude(deg)": 42.36454245974894,
        "Longitude(deg)": -80.7706529278306,
        "Mean Anomaly(deg)": -251.86321299901655,
        "RAAN(deg)": 264.9907193768466,
        "Satellite Name": "Constellation 1 1172",
        "Satellite Number": 1172,
        "Semi-Major Axis(m)": 7083131.272910544,
        "Time(s)": 164
    },
    {
        "Altitude(m)": 706682.7536279686,
        "Argument of Periapsis(deg)": 0.009891421030491928,
        "Eccentricity": 0.0,
        "Inclination(deg)": 45.0,
        "Latitude(deg)": 42.346402387375605,
        "Longitude(deg)": -80.69651001648394,
        "Mean Anomaly(deg)": -251.80251185876665,
        "RAAN(deg)": 264.99066278768106,
        "Satellite Name": "Constellation 1 1172",
        "Satellite Number": 1172,
        "Semi-Major Axis(m)": 7083131.272910544,
        "Time(s)": 165
    },
    {
        "Altitude(m)": 706678.7442710607,
        "Argument of Periapsis(deg)": 0.009951369036737332,
        "Eccentricity": 0.0,
        "Inclination(deg)": 45.0,
        "Latitude(deg)": 42.32820890470793,
        "Longitude(deg)": -80.62241212078273,
        "Mean Anomaly(deg)": -251.74181071851677,
        "RAAN(deg)": 264.9906061985155,
        "Satellite Name": "Constellation 1 1172",
        "Satellite Number": 1172,
        "Semi-Major Axis(m)": 7083131.272910544,
        "Time(s)": 166
    },
    {
        "Altitude(m)": 706674.7240053648,
        "Argument of Periapsis(deg)": 0.010011317042982738,
        "Eccentricity": 0.0,
        "Inclination(deg)": 45.0,
        "Latitude(deg)": 42.309962075869564,
        "Longitude(deg)": -80.54835931811947,
        "Mean Anomaly(deg)": -251.68110957826687,
        "RAAN(deg)": 264.9905496093499,
        "Satellite Name": "Constellation 1 1172",
        "Satellite Number": 1172,
        "Semi-Major Axis(m)": 7083131.272910544,
        "Time(s)": 167
    },
    {
        "Altitude(m)": 706670.6928548556,
        "Argument of Periapsis(deg)": 0.010071265049228144,
        "Eccentricity": 0.0,
        "Inclination(deg)": 45.0,
        "Latitude(deg)": 42.29166196507667,
        "Longitude(deg)": -80.4743516853274,
        "Mean Anomaly(deg)": -251.62040843801694,
        "RAAN(deg)": 264.9904930201843,
        "Satellite Name": "Constellation 1 1172",
        "Satellite Number": 1172,
        "Semi-Major Axis(m)": 7083131.272910544,
        "Time(s)": 168
    },
    {
        "Altitude(m)": 706666.6508435883,
        "Argument of Periapsis(deg)": 0.01013121305547355,
        "Eccentricity": 0.0,
        "Inclination(deg)": 45.0,
        "Latitude(deg)": 42.27330863663726,
        "Longitude(deg)": -80.40038929868096,
        "Mean Anomaly(deg)": -251.55970729776703,
        "RAAN(deg)": 264.99043643101874,
        "Satellite Name": "Constellation 1 1172",
        "Satellite Number": 1172,
        "Semi-Major Axis(m)": 7083131.272910544,
        "Time(s)": 169
    },
    {
        "Altitude(m)": 706662.5979956712,
        "Argument of Periapsis(deg)": 0.010191161061718957,
        "Eccentricity": 0.0,
        "Inclination(deg)": 45.0,
        "Latitude(deg)": 42.25490215495019,
        "Longitude(deg)": -80.32647223389603,
        "Mean Anomaly(deg)": -251.49900615751716,
        "RAAN(deg)": 264.9903798418532,
        "Satellite Name": "Constellation 1 1172",
        "Satellite Number": 1172,
        "Semi-Major Axis(m)": 7083131.272910544,
        "Time(s)": 170
    }
]